QIANFAN-89              
1 63175U 25046S   25275.03392424  .00000245  00000+0  36112-3 0  9993
2 63175  88.9819 327.4542 0015170 339.8142  20.2408 13.50971960 37724
QIANFAN-90              
1 63176U 25046T   25278.17340358  .00000209  00000+0  30496-3 0  9990
2 63176  88.9812 327.1033 0011841 329.4549  30.5912 13.50968911 38162
